STARLINK-2481           
1 48138U 21027AY  26068.59406591  .00015170  00000+0  52293-3 0  9994
2 48138  53.1608 168.2401 0001377  84.9717 275.1441 15.30220377272460
STRIX-4                 
1 60352U 24137A   26068.65404516  .00020530  00000+0  71820-3 0  9996
2 60352  43.0134 129.8162 0016840   5.2738 354.8289 15.29026223 88766
